{
  "type": "FeatureCollection",
  "features": [
    {
      "type": "Feature",
      "properties": {
        "norad_id": 66684,
        "name": "TRANSPORTER-15U",
        "group": "last-30-days",
        "lat": -48.59751177104325,
        "lon": -115.6517740327719,
        "alt_km": 517.2966742454191,
        "timestamp": "2025-12-27T08:36:17.076834+00:00",
        "meta_object_name": "TRANSPORTER-15U",
        "meta_object_id": "2025-276U",
        "meta_epoch": "2025-12-27T04:25:58.410912",
        "meta_mean_motion": 15.174306,
        "meta_eccentricity": 0.0004694,
        "meta_inclination": 97.4467,
        "meta_ra_of_asc_node": 72.7085,
        "meta_arg_of_pericenter": 221.2792,
        "meta_mean_anomaly": 138.8087,
        "meta_ephemeris_type": 0,
        "meta_classification_type": "U",
        "meta_norad_cat_id": 66684,
        "meta_element_set_no": 999,
        "meta_rev_at_epoch": 431,
        "meta_bstar": 0.0007234,
        "meta_mean_motion_dot": 0.00014425,
        "meta_mean_motion_ddot": 0,
        "tle_line1": "1 66684U 25276U   25361.18470383  .00014425  00000+0  72340-3 0  9997",
        "tle_line2": "2 66684  97.4467  72.7085 0004694 221.2792 138.8087 15.17430600  4316"
      },
      "geometry": {
        "type": "Point",
        "coordinates": [
          -115.6517740327719,
          -48.59751177104325
        ]
      }
    },
    {
      "type": "Feature",
      "properties": {
        "norad_id": 66685,
        "name": "TRANSPORTER-15V",
        "group": "last-30-days",
        "lat": -65.68971912935677,
        "lon": -123.95383438548966,
        "alt_km": 506.8024336261624,
        "timestamp": "2025-12-27T08:36:17.076846+00:00",
        "meta_object_name": "TRANSPORTER-15V",
        "meta_object_id": "2025-276V",
        "meta_epoch": "2025-12-27T02:47:35.884320",
        "meta_mean_motion": 15.21953501,
        "meta_eccentricity": 0.0008559,
        "meta_inclination": 97.4444,
        "meta_ra_of_asc_node": 72.6316,
        "meta_arg_of_pericenter": 36.5472,
        "meta_mean_anomaly": 323.6347,
        "meta_ephemeris_type": 0,
        "meta_classification_type": "U",
        "meta_norad_cat_id": 66685,
        "meta_element_set_no": 999,
        "meta_rev_at_epoch": 430,
        "meta_bstar": 0.15372,
        "meta_mean_motion_dot": 0.03971994,
        "meta_mean_motion_ddot": 0,
        "tle_line1": "1 66685U 25276V   25361.11638755  .03971994  00000+0  15372+0 0  9994",
        "tle_line2": "2 66685  97.4444  72.6316 0008559  36.5472 323.6347 15.21953501  4301"
      },
      "geometry": {
        "type": "Point",
        "coordinates": [
          -123.95383438548966,
          -65.68971912935677
        ]
      }
    },
    {
      "type": "Feature",
      "properties": {
        "norad_id": 66686,
        "name": "TRANSPORTER-15W",
        "group": "last-30-days",
        "lat": -30.735942381293057,
        "lon": -111.59503650954024,
        "alt_km": 517.779643841005,
        "timestamp": "2025-12-27T08:36:17.076856+00:00",
        "meta_object_name": "TRANSPORTER-15W",
        "meta_object_id": "2025-276W",
        "meta_epoch": "2025-12-27T04:30:41.999040",
        "meta_mean_motion": 15.17073945,
        "meta_eccentricity": 0.0004379,
        "meta_inclination": 97.4444,
        "meta_ra_of_asc_node": 72.6966,
        "meta_arg_of_pericenter": 221.4396,
        "meta_mean_anomaly": 138.6506,
        "meta_ephemeris_type": 0,
        "meta_classification_type": "U",
        "meta_norad_cat_id": 66686,
        "meta_element_set_no": 999,
        "meta_rev_at_epoch": 431,
        "meta_bstar": 0.00059362,
        "meta_mean_motion_dot": 0.000117,
        "meta_mean_motion_ddot": 0,
        "tle_line1": "1 66686U 25276W   25361.18798610  .00011700  00000+0  59362-3 0  9997",
        "tle_line2": "2 66686  97.4444  72.6966 0004379 221.4396 138.6506 15.17073945  4311"
      },
      "geometry": {
        "type": "Point",
        "coordinates": [
          -111.59503650954024,
          -30.735942381293057
        ]
      }
    },
    {
      "type": "Feature",
      "properties": {
        "norad_id": 66687,
        "name": "TRANSPORTER-15X",
        "group": "last-30-days",
        "lat": 2.6002705130412025,
        "lon": -106.835073727227,
        "alt_km": 522.2985841992195,
        "timestamp": "2025-12-27T08:36:17.076882+00:00",
        "meta_object_name": "TRANSPORTER-15X",
        "meta_object_id": "2025-276X",
        "meta_epoch": "2025-12-27T04:39:35.069760",
        "meta_mean_motion": 15.16821541,
        "meta_eccentricity": 0.0008087,
        "meta_inclination": 97.4384,
        "meta_ra_of_asc_node": 72.6637,
        "meta_arg_of_pericenter": 40.1556,
        "meta_mean_anomaly": 320.0274,
        "meta_ephemeris_type": 0,
        "meta_classification_type": "U",
        "meta_norad_cat_id": 66687,
        "meta_element_set_no": 999,
        "meta_rev_at_epoch": 431,
        "meta_bstar": 0.00078015,
        "meta_mean_motion_dot": 0.00015303,
        "meta_mean_motion_ddot": 0,
        "tle_line1": "1 66687U 25276X   25361.19415590  .00015303  00000+0  78015-3 0  9991",
        "tle_line2": "2 66687  97.4384  72.6637 0008087  40.1556 320.0274 15.16821541  4315"
      },
      "geometry": {
        "type": "Point",
        "coordinates": [
          -106.835073727227,
          2.6002705130412025
        ]
      }
    },
    {
      "type": "Feature",
      "properties": {
        "norad_id": 66688,
        "name": "TRANSPORTER-15Y",
        "group": "last-30-days",
        "lat": -36.75999007511149,
        "lon": -112.74431691069135,
        "alt_km": 518.224900494517,
        "timestamp": "2025-12-27T08:36:17.076895+00:00",
        "meta_object_name": "TRANSPORTER-15Y",
        "meta_object_id": "2025-276Y",
        "meta_epoch": "2025-12-27T04:29:05.959392",
        "meta_mean_motion": 15.17141447,
        "meta_eccentricity": 0.0003971,
        "meta_inclination": 97.4425,
        "meta_ra_of_asc_node": 72.691,
        "meta_arg_of_pericenter": 229.7236,
        "meta_mean_anomaly": 130.3651,
        "meta_ephemeris_type": 0,
        "meta_classification_type": "U",
        "meta_norad_cat_id": 66688,
        "meta_element_set_no": 999,
        "meta_rev_at_epoch": 431,
        "meta_bstar": 0.00023292,
        "meta_mean_motion_dot": 4.555e-05,
        "meta_mean_motion_ddot": 0,
        "tle_line1": "1 66688U 25276Y   25361.18687453  .00004555  00000+0  23292-3 0  9994",
        "tle_line2": "2 66688  97.4425  72.6910 0003971 229.7236 130.3651 15.17141447  4315"
      },
      "geometry": {
        "type": "Point",
        "coordinates": [
          -112.74431691069135,
          -36.75999007511149
        ]
      }
    },
    {
      "type": "Feature",
      "properties": {
        "norad_id": 66689,
        "name": "TRANSPORTER-15Z",
        "group": "last-30-days",
        "lat": -56.37956935198286,
        "lon": -118.47200992184251,
        "alt_km": 520.321187357551,
        "timestamp": "2025-12-27T08:36:17.076906+00:00",
        "meta_object_name": "TRANSPORTER-15Z",
        "meta_object_id": "2025-276Z",
        "meta_epoch": "2025-12-27T04:23:50.394624",
        "meta_mean_motion": 15.17232602,
        "meta_eccentricity": 0.0001439,
        "meta_inclination": 97.4407,
        "meta_ra_of_asc_node": 72.6913,
        "meta_arg_of_pericenter": 231.4612,
        "meta_mean_anomaly": 128.6493,
        "meta_ephemeris_type": 0,
        "meta_classification_type": "U",
        "meta_norad_cat_id": 66689,
        "meta_element_set_no": 999,
        "meta_rev_at_epoch": 431,
        "meta_bstar": 0.00033997,
        "meta_mean_motion_dot": 6.697e-05,
        "meta_mean_motion_ddot": 0,
        "tle_line1": "1 66689U 25276Z   25361.18322216  .00006697  00000+0  33997-3 0  9990",
        "tle_line2": "2 66689  97.4407  72.6913 0001439 231.4612 128.6493 15.17232602  4312"
      },
      "geometry": {
        "type": "Point",
        "coordinates": [
          -118.47200992184251,
          -56.37956935198286
        ]
      }
    },
    {
      "type": "Feature",
      "properties": {
        "norad_id": 66690,
        "name": "TRANSPORTER-15AA",
        "group": "last-30-days",
        "lat": -36.04616614672799,
        "lon": -112.61051340789435,
        "alt_km": 518.397294804774,
        "timestamp": "2025-12-27T08:36:17.076916+00:00",
        "meta_object_name": "TRANSPORTER-15AA",
        "meta_object_id": "2025-276AA",
        "meta_epoch": "2025-12-27T04:29:17.295072",
        "meta_mean_motion": 15.1711749,
        "meta_eccentricity": 0.000373,
        "meta_inclination": 97.4386,
        "meta_ra_of_asc_node": 72.6774,
        "meta_arg_of_pericenter": 226.7629,
        "meta_mean_anomaly": 133.3294,
        "meta_ephemeris_type": 0,
        "meta_classification_type": "U",
        "meta_norad_cat_id": 66690,
        "meta_element_set_no": 999,
        "meta_rev_at_epoch": 431,
        "meta_bstar": 0.00052877,
        "meta_mean_motion_dot": 0.00010425,
        "meta_mean_motion_ddot": 0,
        "tle_line1": "1 66690U 25276AA  25361.18700573  .00010425  00000+0  52877-3 0  9990",
        "tle_line2": "2 66690  97.4386  72.6774 0003730 226.7629 133.3294 15.17117490  4315"
      },
      "geometry": {
        "type": "Point",
        "coordinates": [
          -112.61051340789435,
          -36.04616614672799
        ]
      }
    }
  ]
}